#dP2019  7 30  0  0  0.00000000      96 __u+U ITR00 FIT  IAC
## 2064 172800.00000000   900.00000000 58694 0.0000000000000
+  100   C01C02C03C04C05C06C07C08C09C10C11C12C13C14C16E01E02
+        E03E04E05E07E08E09E11E12E13E14E15E18E19E21E24E25E26
+        E27E30E31E33E36G01G02G03G04G05G06G07G08G09G10G11G12
+        G13G14G15G16G17G18G19G20G21G22G23G24G25G26G27G28G29
+        G30G31G32J01J02J03J07R01R02R03R04R05R06R07R08R09R10
+        R11R12R13R14R15R16R17R18R19R20R21R22R23R24R26  0  0
++        13 13 13 13 12  9  8  8  8  8  8  8  8  8  8  5  5
++         4  5  5  5  5  5  5  5  5  4  5  5  5  5  5  5  5
++         5  5  5  5  5  3  3  3  4  3  3  3  3  3  3  3  3
++         3  3  3  3  3  3  3  3  3  3  3  3  3  3  3  3  3
++         3  3  3  8  8  8 13  5  5  5  5  5 10  5  5  5  5
++         5  5  6  5  5  6  5  5  6  6  5  5  5  6  8  0  0
%c M  cc GPS ccc cccc cccc cccc cccc ccccc ccccc ccccc ccccc
%c cc cc ccc ccc cccc cccc cccc cccc ccccc ccccc ccccc ccccc
%f  0.0000000  0.000000000  0.00000000000  0.000000000000000
%f  0.0000000  0.000000000  0.00000000000  0.000000000000000
%i    0    0    0    0      0      0      0      0         0
%i    0    0    0    0      0      0      0      0         0
/* INFORMATION & ANALYSIS CENTER (IAC) OF MCC   (RAPID DATA)
/* S/V CLOCKS ARE ALIGNED TO GPS & GLONASS TIME RESPECTIVELY
/* USING THE BROADCAST EPHEMERIS                            
/* PCV:IGS14_2056 OL/AL:FES2004  NONE     YN ORB:CoN CLK:CoN
*  2019 07 30  4 15  0.00000000
PC01 -32331.963534  27034.676609    517.365169    193.540003
PC02   4387.218910  41948.808035    307.423822      3.615172
PC03 -14839.002094  39448.135787    685.695155    868.892210
PC04 -39597.715858  14436.803590    568.223142    683.218506
PC05  21855.207418  36048.559703     91.521118   -454.781640
PC06 -20587.344876  22748.689737 -28741.106003    511.192815
PC07 -17543.471012  37865.085443  -3623.945881    -34.008014
PC08  -4407.073329  26991.461112  32250.876634    167.886634
PC09  -4981.785447  24456.922336 -33776.394346   -148.606841
PC10  -7340.357681  40258.650275   9318.353388    -33.706176
PC11  26941.233784   7219.127275  -1610.673045    241.491961
PC12   7865.100823  16777.670213  20950.926270    917.084525
PC13   6084.127171  34266.945573  24028.337210   -876.638939
PC14  13751.695995   8726.613296 -22591.028600    519.461368
PC16 -18288.909393  23144.967064 -30152.019515   -882.824444
PE01  12479.780650  14802.366743  22389.678282   -657.728928
PE02 -12501.755460 -14751.588349 -22409.448139     71.596512
PE03 -20797.442684  -7261.252061  19770.147229   -193.834088
PE04  28368.470124  -7273.357738  -4306.725329   -333.781184
PE05   -978.366724 -17644.746968  23754.291316   -462.009590
PE07 -19310.759801  17651.157249 -13820.703299   -236.223561
PE08 -28290.274988   7581.155753   4234.988220   6315.951410
PE09  19177.725425 -17751.961306  13930.872929   6363.495346
PE11   8383.566543 -14228.271989 -24576.031913   5640.057066
PE12  22922.615450   2730.434234 -18521.784503   6273.477312
PE13  -8402.602979  14099.052392  24631.805075    390.706442
PE14  20057.419401 -14797.007351 -18896.488977   -661.943314
PE15 -22754.117378  -2357.606039  18786.741160    901.324735
PE18 -23484.431489   5505.338640   8211.442670   -757.176546
PE19  19199.992316   8458.026868 -20870.841942     -4.853590
PE21    834.489588  28388.908484   8317.256713   -546.771379
PE24  11362.001233 -25275.443644  10386.286152   5950.877224
PE25   -774.277349 -28425.381240  -8236.191627   1726.897390
PE26  10753.469212  22523.564389  15914.508028   4282.803638
PE27 -11317.990988  25199.054198 -10618.274953    418.737276
PE30 -16882.752138   7303.894545 -23195.640493   4670.276033
PE31  16803.220296  -7240.791587  23280.719239   -466.896309
PE33  23810.484441  17476.242059  -1919.471261   -469.816069
PE36 -10920.921767 -22343.699599 -16054.396937    681.253231
PG01 -18466.275909  -7885.867036  17351.826213    -81.582900
PG02  14707.269266  22204.080178   1072.694661   -271.490143
PG03 -17514.812762   3827.937049  19519.495642    178.016959
PG04  -9432.437271 -13702.342714 -21108.983387     38.090252
PG05   7397.956077  16368.719745 -19628.342112     -0.267360
PG06   3557.915107  22789.701951  13179.248652     -9.158454
PG07 -13088.319452   7758.243079 -21495.217469    -74.642980
PG08 -24421.526529  -5350.443368  -9244.480742     -0.714815
PG09 -22640.885328   8679.329577 -10888.787682    359.631750
PG10  10805.877574 -23992.800856   2724.364899    -33.775438
PG11 -23640.371849  -6757.033379   9158.089268   -548.511191
PG12  16306.867347     92.534285  20712.485414    219.058637
PG13  16923.772034  12809.636939 -16111.095613    -52.206209
PG14  -2024.535654 -15432.042285  21863.975287    -69.102957
PG15  25024.851022   3706.079108  -8987.018527   -297.597039
PG16  -4990.307849 -16719.754959 -20075.859629    -60.523342
PG17  -7120.543994  14215.705894  21670.234265     97.589074
PG18 -19079.586655 -15230.779227  10101.250122     73.859099
PG19   -385.586349  14618.540873  21866.533089   -287.649262
PG20  14197.196056 -21129.155088  -7378.395659    526.218575
PG21   8423.301472 -13550.922064 -20472.947342   -145.532620
PG22 -15593.451920  -4201.771603  21307.514979   -737.594717
PG23 -26737.418472    -75.884925   1814.843997   -174.785450
PG24  19853.399333   9640.097561  14855.414581    -69.475641
PG25  18011.021768 -13767.668775  13419.633052     -4.293215
PG26   1698.282088 -23219.450898 -12634.338068      2.825719
PG27 -14654.063783 -12193.301387 -18733.042942     -8.689902
PG28 -12508.405396  23277.421202   3754.909565    765.691039
PG29  24810.504307  -4578.362543  -8370.581956    138.366955
PG30  -5391.049767  18130.850008 -18539.367649     -9.185749
PG31  -4109.249803 -23350.395532  11498.037211     20.866996
PG32   6725.823871 -14986.840006  20910.722641     -0.722444
PJ01 -34282.376892  24521.121565   4821.265198   -265.983203
PJ02 -19835.725630  28118.155595 -19873.857619     -1.721828
PJ03 -29095.734310  24542.502476  23113.607933     -0.174396
PJ07 -25407.853600  33642.903754    -24.414798     -0.030176
PR01   5719.377479 -15296.418514  19605.937938     47.431333
PR02 -13403.831675  -3433.901409  21482.567439    380.775098
PR03 -21996.582638   9021.646461   9344.818524     -0.870534
PR04 -17486.878642  16390.800165  -8733.381853    315.735450
PR05  -3705.642750  14136.171790 -20898.811792     32.860535
PR06  14187.887365   2666.777863 -21030.111814    159.057727
PR07  22024.509928  -9358.892554  -8741.739940    -24.221741
PR08  17907.341340 -16268.772140   8124.619484     16.475281
PR09  10142.795604  13089.337581  19391.484905     82.725685
PR10  10548.648754  -3137.971688  23001.681652     55.538710
PR11   5612.598710 -20687.205127  13889.252420    -74.318507
PR12  -2385.871512 -25296.965762  -2133.668132     48.215170
PR13  -9564.443087 -15183.261994 -18147.376090    -26.509508
PR14 -10754.316468   3355.056033 -22868.710923     41.448284
PR15  -5887.934247  20054.148909 -14594.677235    103.325621
PR16   2917.305930  25292.511786   2318.051571      6.863225
PR17 -21596.634779  -4505.652742  12771.611674    247.736662
PR18 -10034.671709   6341.403947  22592.260582      2.022165
PR19   6612.874568  13951.389317  20300.034367    -45.148818
PR20  20886.408207  13810.695806   4752.312906   -385.846211
PR21  21341.214571   4146.914948 -13372.727938    -62.842326
PR22   7224.126082  -7978.152063 -23120.500759    -30.731709
PR23 -11989.706111 -14838.217090 -16946.377280    243.914279
PR24 -21868.221593 -12835.723298  -2864.615860   -183.151855
PR26  19750.936732  14180.491158   7764.938497    -13.739661
EOF
